[{"OBJECT_NAME":"KOMPSAT-7","OBJECT_ID":"2025-279A","EPOCH":"2026-03-09T20:54:17.078400","MEAN_MOTION":15.01421798,"ECCENTRICITY":0.00098953,"INCLINATION":97.6738,"RA_OF_ASC_NODE":18.4558,"ARG_OF_PERICENTER":343.5135,"MEAN_ANOMALY":16.5766,"EPHEMERIS_TYPE":0,"CLASSIFICATION_TYPE":"U","NORAD_CAT_ID":66820,"ELEMENT_SET_NO":999,"REV_AT_EPOCH":1472,"BSTAR":0.00031598708,"MEAN_MOTION_DOT":4.022e-5,"MEAN_MOTION_DDOT":0},{"OBJECT_NAME":"CZ-4C DEB","OBJECT_ID":"2018-031G","EPOCH":"2026-03-09T17:35:43.516320","MEAN_MOTION":15.0216174,"ECCENTRICITY":0.00078465,"INCLINATION":97.7704,"RA_OF_ASC_NODE":152.3432,"ARG_OF_PERICENTER":232.9325,"MEAN_ANOMALY":127.1182,"EPHEMERIS_TYPE":0,"CLASSIFICATION_TYPE":"U","NORAD_CAT_ID":43265,"ELEMENT_SET_NO":999,"REV_AT_EPOCH":42950,"BSTAR":0.00075767681,"MEAN_MOTION_DOT":9.924e-5,"MEAN_MOTION_DDOT":0}]
